[{"OBJECT_NAME":"TIANHUI 5B","OBJECT_ID":"2023-168C","EPOCH":"2026-03-09T12:35:57.993792","MEAN_MOTION":14.87579039,"ECCENTRICITY":0.0002138,"INCLINATION":97.8217,"RA_OF_ASC_NODE":77.3226,"ARG_OF_PERICENTER":97.0143,"MEAN_ANOMALY":263.1317,"EPHEMERIS_TYPE":0,"CLASSIFICATION_TYPE":"U","NORAD_CAT_ID":58201,"ELEMENT_SET_NO":999,"REV_AT_EPOCH":12778,"BSTAR":7.7374e-5,"MEAN_MOTION_DOT":6.49e-6,"MEAN_MOTION_DDOT":0},{"OBJECT_NAME":"CZ-6A DEB","OBJECT_ID":"2024-140DR","EPOCH":"2026-03-09T19:52:08.590080","MEAN_MOTION":14.67947666,"ECCENTRICITY":0.01507927,"INCLINATION":88.8745,"RA_OF_ASC_NODE":272.0518,"ARG_OF_PERICENTER":194.3001,"MEAN_ANOMALY":165.3928,"EPHEMERIS_TYPE":0,"CLASSIFICATION_TYPE":"U","NORAD_CAT_ID":60712,"ELEMENT_SET_NO":999,"REV_AT_EPOCH":8418,"BSTAR":0.00048384555,"MEAN_MOTION_DOT":3.311e-5,"MEAN_MOTION_DDOT":0}]
